NORAD_CAT_ID,OBJECT_NAME,OBJECT_TYPE,EPOCH,MEAN_MOTION,ECCENTRICITY,INCLINATION,RA_OF_ASC_NODE,ARG_OF_PERICENTER,MEAN_ANOMALY,BSTAR,MEAN_MOTION_DOT,MEAN_MOTION_DDOT,TLE_LINE0,TLE_LINE1,TLE_LINE2,SEMIMAJOR_AXIS,PERIOD,APOGEE,PERIGEE,DECAYED
52295.0,STARLINK-3765,PAYLOAD,2022-05-05 22:00:00,15.73127194,0.0001628,53.2145,304.3665,37.2259,262.4481,0.00065478,0.00091999,0.0,0 STARLINK-3765,1 52295U 22041AL  22125.91667824  .00091999  00000-0  65478-3 0  9997,2 52295  53.2145 304.3665 0001628  37.2259 262.4481 15.73127194  2893,6728.103,91.537,351.06300000000016,348.872,0.0
52295.0,STARLINK-3765,PAYLOAD,2022-05-06 08:00:01,15.73182505,0.0001426999999999,53.2154,302.3025,42.1225,98.719,0.00022562,0.00031138,0.0,0 STARLINK-3765,1 52295U 22041AL  22126.33334491  .00031138  00000-0  22562-3 0  9991,2 52295  53.2154 302.3025 0001427  42.1225  98.7190 15.73182505  3532,6727.945,91.534,350.77,348.85,0.0
52295.0,STARLINK-3765,PAYLOAD,2022-05-06 14:00:01,15.73267914,0.000146,53.2163,301.0659,32.5035,85.0302,-0.0037708,-0.00500968,0.0,0 STARLINK-3765,1 52295U 22041AL  22126.58334491 -.00500968  00000-0 -37708-2 0  9999,2 52295  53.2163 301.0659 0001460  32.5035  85.0302 15.73267914  3576,6727.7019999999975,91.529,350.5490000000001,348.584,0.0
52295.0,STARLINK-3765,PAYLOAD,2022-05-06 22:00:00,15.73192439,0.0001795,53.2148,299.4177,38.4369,168.0318,0.00045665,0.00063938,0.0,0 STARLINK-3765,1 52295U 22041AL  22126.91667824  .00063938  00000-0  45665-3 0  9996,2 52295  53.2148 299.4177 0001795  38.4369 168.0318 15.73192439  3635,6727.917,91.534,350.98900000000015,348.574,0.0
52295.0,STARLINK-3765,PAYLOAD,2022-05-07 06:00:02,15.731875199999998,0.0001606,53.2147,297.7662,39.3216,256.1616,0.00027779,0.00038524,0.0,0 STARLINK-3765,1 52295U 22041AL  22127.25002315  .00038524  00000-0  27779-3 0  9991,2 52295  53.2147 297.7662 0001606  39.3216 256.1616 15.73187520  3686,6727.931,91.534,350.876,348.715,0.0
52295.0,STARLINK-3765,PAYLOAD,2022-05-07 14:00:01,15.73240099,0.0001646,53.2146,296.1172,38.7648,345.574,-0.00057713,-0.00080983,0.0,0 STARLINK-3765,1 52295U 22041AL  22127.58334491 -.00080983  00000-0 -57713-3 0  9999,2 52295  53.2146 296.1172 0001646  38.7648 345.5740 15.73240099  3165,6727.781,91.531,350.75300000000016,348.538,0.0
52295.0,STARLINK-3765,PAYLOAD,2022-05-07 20:00:01,15.7317329,0.00018,53.2142,294.8816,35.1724,325.8758,-8.4663e-05,-0.00012472,0.0,0 STARLINK-3765,1 52295U 22041AL  22127.83334491 -.00012472  00000-0 -84663-4 0  9990,2 52295  53.2142 294.8816 0001800  35.1724 325.8758 15.73173290  3774,6727.971,91.535,351.047,348.625,0.0
52295.0,STARLINK-3765,PAYLOAD,2022-05-07 22:00:00,15.73136906,0.0001783,53.214,294.4694,31.5555,81.7276,0.00045833,0.00064022,0.0,0 STARLINK-3765,1 52295U 22041AL  22127.91667824  .00064022  00000-0  45833-3 0  9999,2 52295  53.2140 294.4694 0001783  31.5555  81.7276 15.73136906  3219,6728.075,91.537,351.14,348.74,0.0
52295.0,STARLINK-3765,PAYLOAD,2022-05-08 14:00:01,15.73254837,0.0001584,53.2142,291.1688,31.119,259.9386,-0.00054655,-0.0007681,0.0,0 STARLINK-3765,1 52295U 22041AL  22128.58334491 -.00076810  00000-0 -54655-3 0  9996,2 52295  53.2142 291.1688 0001584  31.1190 259.9386 15.73254837  3897,6727.739000000001,91.53,350.67,348.538,0.0
52295.0,STARLINK-3765,PAYLOAD,2022-05-08 22:00:00,15.73185113,0.0001856,53.2139,289.5207,24.0733,355.9653,4.0352e-06,-5.5e-07,0.0,0 STARLINK-3765,1 52295U 22041AL  22128.91667824 -.00000055  00000-0  40352-5 0  9990,2 52295  53.2139 289.5207 0001856  24.0733 355.9653 15.73185113  3374,6727.938,91.534,351.051,348.55400000000014,0.0
52295.0,STARLINK-3765,PAYLOAD,2022-05-09 06:00:00,15.73147303,0.0001669,53.2139,287.8692,28.0009,80.9451,0.00062684,0.00088082,0.0,0 STARLINK-3765,1 52295U 22041AL  22129.25001157  .00088082  00000-0  62684-3 0  9994,2 52295  53.2139 287.8692 0001669  28.0009  80.9451 15.73147303  3993,6728.045,91.536,351.033,348.788,0.0
52295.0,STARLINK-3765,PAYLOAD,2022-05-09 14:00:01,15.73247858,0.0001734,53.2138,286.2205,26.4417,171.4634,-0.00046527,-0.00065548,0.0,0 STARLINK-3765,1 52295U 22041AL  22129.58335648 -.00065548  00000-0 -46527-3 0  9997,2 52295  53.2138 286.2205 0001734  26.4417 171.4634 15.73247858  3482,6727.759,91.53,350.79,348.457,0.0
52295.0,STARLINK-3765,PAYLOAD,2022-05-09 22:00:00,15.73175658,0.0001941,53.2131,284.5721,17.7014,269.1267,0.00071009,0.0010013,0.0,0 STARLINK-3765,1 52295U 22041AL  22129.91667824  .00100130  00000-0  71009-3 0  9996,2 52295  53.2131 284.5721 0001941  17.7014 269.1267 15.73175658  4100,6727.965,91.535,351.135,348.524,0.0
52295.0,STARLINK-3765,PAYLOAD,2022-05-10 06:00:00,15.73232917,0.0001725,53.2131,282.9202,22.9358,352.8235,-0.0001453,-0.00020991,0.0,0 STARLINK-3765,1 52295U 22041AL  22130.25001157 -.00020991  00000-0 -14530-3 0  9990,2 52295  53.2131 282.9202 0001725  22.9358 352.8235 15.73232917  4157,6727.801,91.531,350.827,348.506,0.0
52295.0,STARLINK-3765,PAYLOAD,2022-05-10 14:00:01,15.73235591,0.0001966,53.2134,281.2716,29.186,75.5177,-0.00087465,-0.00121808,0.0,0 STARLINK-3765,1 52295U 22041AL  22130.58334491 -.00121808  00000-0 -87465-3 0  9992,2 52295  53.2134 281.2716 0001966  29.1860  75.5177 15.73235591  3644,6727.794,91.531,350.981,348.336,0.0
52295.0,STARLINK-3765,PAYLOAD,2022-05-10 18:00:00,15.73177959,0.0002109,53.2137,280.4477,27.5981,301.5858,-0.00042102,-0.00059244,0.0,0 STARLINK-3765,1 52295U 22041AL  22130.75001157 -.00059244  00000-0 -42102-3 0  9994,2 52295  53.2137 280.4477 0002109  27.5981 301.5858 15.73177959  4235,6727.958000000001,91.534,351.242,348.404,0.0
52295.0,STARLINK-3765,PAYLOAD,2022-05-11 22:00:00,15.73232507,0.0002317,53.2141,274.6742,23.1245,77.1762,0.00033295,0.00046434,0.0,0 STARLINK-3765,1 52295U 22041AL  22131.91667824  .00046434  00000-0  33295-3 0  9990,2 52295  53.2141 274.6742 0002317  23.1245  77.1762 15.73232507  4417,6727.802,91.531,351.226,348.1090000000001,0.0
52295.0,STARLINK-3765,PAYLOAD,2022-05-12 04:00:00,15.73255957,0.0002108,53.2144,273.4353,25.8075,51.2292,-0.00019965,-0.00028616,0.0,0 STARLINK-3765,1 52295U 22041AL  22132.16667824 -.00028616  00000-0 -19965-3 0  9990,2 52295  53.2144 273.4353 0002108  25.8075  51.2292 15.73255957  4452,6727.736,91.53,351.019,348.182,0.0
52295.0,STARLINK-3765,PAYLOAD,2022-05-12 14:00:01,15.73295338,0.0002223,53.2146,271.374,25.5238,252.7325,-0.00050813,-0.00071629,0.0,0 STARLINK-3765,1 52295U 22041AL  22132.58334491 -.00071629  00000-0 -50813-3 0  9996,2 52295  53.2146 271.3740 0002223  25.5238 252.7325 15.73295338  1300,6727.623000000001,91.528,350.9840000000001,347.99300000000005,0.0
52295.0,STARLINK-3765,PAYLOAD,2022-05-12 20:00:01,15.73258951,0.0002362,53.2148,270.1377,18.1457,236.8959,-0.00030997,-0.00044013,0.0,0 STARLINK-3765,1 52295U 22041AL  22132.83334491 -.00044013  00000-0 -30997-3 0  9992,2 52295  53.2148 270.1377 0002362  18.1457 236.8959 15.73258951  4567,6727.727,91.53,351.181,348.00300000000016,0.0
52295.0,STARLINK-3765,PAYLOAD,2022-05-12 22:00:00,15.73247775,0.0002341,53.2145,269.7249,15.9901,351.3014,-0.00023721,-0.00033851,0.0,0 STARLINK-3765,1 52295U 22041AL  22132.91667824 -.00033851  00000-0 -23721-3 0  9995,2 52295  53.2145 269.7249 0002341  15.9901 351.3014 15.73247775  1308,6727.759,91.53,351.199,348.0490000000001,0.0
52295.0,STARLINK-3765,PAYLOAD,2022-05-13 14:00:01,15.73224913,0.0002395,53.2147,266.4251,19.1858,165.9846,-0.00057538,-0.000807,0.0,0 STARLINK-3765,1 52295U 22041AL  22133.58334491 -.00080700  00000-0 -57538-3 0  9998,2 52295  53.2147 266.4251 0002395  19.1858 165.9846 15.73224913  1304,6727.824000000001,91.532,351.3,348.07800000000015,0.0
52295.0,STARLINK-3765,PAYLOAD,2022-05-13 22:00:00,15.731671900000002,0.0002556,53.214,264.7758,17.975,256.1251,-0.00032645,-0.0004613,0.0,0 STARLINK-3765,1 52295U 22041AL  22133.91667824 -.00046130  00000-0 -32645-3 0  9995,2 52295  53.2140 264.7758 0002556  17.9750 256.1251 15.73167190  4732,6727.989000000001,91.535,351.5730000000001,348.134,0.0
52295.0,STARLINK-3765,PAYLOAD,2022-05-14 14:00:01,15.73195758,0.000259,53.2146,261.4768,20.9983,70.8435,0.00025779,0.00035709,0.0,0 STARLINK-3765,1 52295U 22041AL  22134.58334491  .00035709  00000-0  25779-3 0  9998,2 52295  53.2146 261.4768 0002590  20.9983  70.8435 15.73195758  4830,6727.906999999997,91.533,351.515,348.03,0.0
52295.0,STARLINK-3765,PAYLOAD,2022-05-14 22:00:00,15.73283866,0.0002683,53.2147,259.8272,17.296,163.4986,-0.00036654,-0.00051942,0.0,0 STARLINK-3765,1 52295U 22041AL  22134.91667824 -.00051942  00000-0 -36654-3 0  9997,2 52295  53.2147 259.8272 0002683  17.2960 163.4986 15.73283866  4882,6727.656,91.528,351.326,347.716,0.0
52295.0,STARLINK-3765,PAYLOAD,2022-05-15 06:00:00,15.72867281,0.0002707,53.2165,258.1767,26.2691,243.5781,0.0023638,0.00340053,0.0,0 STARLINK-3765,1 52295U 22041AL  22135.25001157  .00340053  00000-0  23638-2 0  9995,2 52295  53.2165 258.1767 0002707  26.2691 243.5781 15.72867281  4949,6728.844,91.553,352.53,348.88699999999994,0.0
52295.0,STARLINK-3765,PAYLOAD,2022-05-15 14:00:01,15.73221348,0.000273,53.2148,256.5279,14.4245,344.3771,-0.00021968,-0.00031372,0.0,0 STARLINK-3765,1 52295U 22041AL  22135.58335648 -.00031372  00000-0 -21968-3 0  9994,2 52295  53.2148 256.5279 0002730  14.4245 344.3771 15.73221348  4993,6727.834,91.532,351.536,347.86300000000006,0.0
52295.0,STARLINK-3765,PAYLOAD,2022-05-15 22:00:00,15.73266723,0.000285,53.2142,254.8782,13.5735,74.1136,-0.00032174,-0.00045672,0.0,0 STARLINK-3765,1 52295U 22041AL  22135.91667824 -.00045672  00000-0 -32174-3 0  9994,2 52295  53.2142 254.8782 0002850  13.5735  74.1136 15.73266723  5040,6727.705,91.529,351.487,347.653,0.0
52295.0,STARLINK-3765,PAYLOAD,2022-05-16 14:00:01,15.73227871,0.0002863,53.2146,251.5794,15.0257,250.5846,-0.00095166,-0.00132296,0.0,0 STARLINK-3765,1 52295U 22041AL  22136.58334491 -.00132296  00000-0 -95166-3 0  9998,2 52295  53.2146 251.5794 0002863  15.0257 250.5846 15.73227871  1305,6727.816,91.532,351.607,347.755,0.0
